ONEWEB-0597             
1 54663U 22166X   25100.68154379  .00000087  00000+0  17986-3 0  9990
2 54663  87.9297 330.2336 0002019  85.0412 275.0953 13.21823965114401
ONEWEB-0600             
1 54664U 22166Y   25100.89126204  .00000092  00000+0  19027-3 0  9994
2 54664  87.9275 330.2072 0001946  81.6446 278.4908 13.21822909114406
ONEWEB-0601             
1 54665U 22166Z   25100.88340435  .00000118  00000+0  25406-3 0  9995
2 54665  87.9298 330.2032 0002109  90.8435 269.2941 13.21825160115059
ONEWEB-0602             
1 54666U 22166AA  25100.69731751  .00000099  00000+0  20876-3 0  9994
2 54666  87.9296 330.2412 0002109  83.5784 276.5590 13.21825109114419
ONEWEB-0603             
1 54667U 22166AB  25100.70204678  .00000054  00000+0  10035-3 0  9997
2 54667  87.9271 330.2024 0002099  86.4685 273.6689 13.21825497114341
ONEWEB-0604             
1 54668U 22166AC  25100.68943273  .00000052  00000+0  93369-4 0  9996
2 54668  87.9291 330.2077 0002045  82.1336 278.0030 13.21824319114306
ONEWEB-0605             
1 54669U 22166AD  25100.68312732  .00000148  00000+0  32672-3 0  9992
2 54669  87.9291 330.2400 0002254 101.0007 259.1381 13.21824324114377
ONEWEB-0606             
1 54670U 22166AE  25100.62950795  .00000020  00000+0  15877-4 0  9993
2 54670  87.9296 330.2575 0001625  80.6177 279.5141 13.21824981114423
